STARLINK-4759           
1 53829U 22114M   25234.05929679  .00000057  00000+0  21640-4 0  9998
2 53829  53.2164 120.3218 0001255  95.3184 264.7951 15.08836661162692
STARLINK-4761           
1 53830U 22114N   25234.10711196 -.00000415  00000+0 -79903-5 0  9995
2 53830  53.2168 119.9103 0001348  88.2790 271.8357 15.08835035162707
STARLINK-4649           
1 53831U 22114P   25233.98937293  .00000516  00000+0  50507-4 0  9997
2 53831  53.2173 120.5964 0001335  89.2430 270.8716 15.08837125162682
STARLINK-4747           
1 53832U 22114Q   25234.09974689 -.00001026  00000+0 -46390-4 0  9995
2 53832  53.2171 119.8666 0001405  97.3221 262.7931 15.08833588162708
STARLINK-4771           
1 53833U 22114R   25234.64167598 -.00000243  00000+0  28154-5 0  9998
2 53833  53.2173 117.5622 0001353  94.1516 265.9631 15.08835019162783
STARLINK-4737           
1 53834U 22114S   25233.89364976 -.00000090  00000+0  12430-4 0  9993
2 53834  53.2169 120.7115 0001413  91.3642 268.7512 15.08840678162672
STARLINK-4783           
1 53835U 22114T   25234.10342019  .00000158  00000+0  28017-4 0  9995
2 53835  53.2169 119.8882 0001460  88.7734 271.3425 15.08843903162708
STARLINK-4778           
1 53836U 22114U   25234.07494575  .00001069  00000+0  85212-4 0  9999
2 53836  53.2174 110.4295 0001320  90.6809 269.4334 15.08848358162830
STARLINK-4776           
1 53837U 22114V   25233.89733892 -.00000864  00000+0 -36199-4 0  9991
2 53837  53.2173 120.7351 0001461  88.4079 271.7081 15.08836278162672
STARLINK-4773           
1 53838U 22114W   25234.07127671 -.00001012  00000+0 -45474-4 0  9997
2 53838  53.2180 110.4127 0001525  97.0738 263.0428 15.08834343162835
STARLINK-4784           
1 53839U 22114X   25234.07864246 -.00000357  00000+0 -43449-5 0  9996
2 53839  53.2180 110.4596 0001517  97.3271 262.7893 15.08837168162832
STARLINK-4766           
1 53840U 22114Y   25234.06117527 -.00000081  00000+0  13019-4 0  9992
2 53840  53.2162 110.3478 0001334  87.2539 272.8606 15.08841802162838
STARLINK-4750           
1 53841U 22114Z   25234.06758231  .00001197  00000+0  93310-4 0  9996
2 53841  53.2170 110.3896 0001417  86.0723 274.0431 15.08837820162831
STARLINK-4754           
1 53842U 22114AA  25234.05285798 -.00000815  00000+0 -33140-4 0  9992
2 53842  53.2174 110.2966 0001393  88.8100 271.3052 15.08832602162837
STARLINK-4769           
1 53843U 22114AB  25234.06390334 -.00000361  00000+0 -46037-5 0  9993
2 53843  53.2169 110.3648 0001250  83.0695 277.0440 15.08846993162830
STARLINK-4745           
1 53844U 22114AC  25232.91940288  .00000472  00000+0  47757-4 0  9995
2 53844  53.2176 115.3087 0001397  93.6666 266.4486 15.08828411162666
