[{"OBJECT_NAME":"STARLINK-4759","OBJECT_ID":"2022-114M","EPOCH":"2025-08-22T01:25:23.242656","MEAN_MOTION":15.08836661,"ECCENTRICITY":0.00012555,"INCLINATION":53.2164,"RA_OF_ASC_NODE":120.3218,"ARG_OF_PERICENTER":95.3184,"MEAN_ANOMALY":264.7951,"EPHEMERIS_TYPE":0,"CLASSIFICATION_TYPE":"U","NORAD_CAT_ID":53829,"ELEMENT_SET_NO":999,"REV_AT_EPOCH":16269,"BSTAR":2.1640245e-5,"MEAN_MOTION_DOT":5.7e-7,"MEAN_MOTION_DDOT":0},{"OBJECT_NAME":"STARLINK-4761","OBJECT_ID":"2022-114N","EPOCH":"2025-08-22T02:34:14.473344","MEAN_MOTION":15.08835035,"ECCENTRICITY":0.00013487,"INCLINATION":53.2168,"RA_OF_ASC_NODE":119.9103,"ARG_OF_PERICENTER":88.279,"MEAN_ANOMALY":271.8357,"EPHEMERIS_TYPE":0,"CLASSIFICATION_TYPE":"U","NORAD_CAT_ID":53830,"ELEMENT_SET_NO":999,"REV_AT_EPOCH":16270,"BSTAR":-7.990309e-6,"MEAN_MOTION_DOT":-4.15e-6,"MEAN_MOTION_DDOT":0},{"OBJECT_NAME":"STARLINK-4649","OBJECT_ID":"2022-114P","EPOCH":"2025-08-21T23:44:41.821152","MEAN_MOTION":15.08837125,"ECCENTRICITY":0.00013358,"INCLINATION":53.2173,"RA_OF_ASC_NODE":120.5964,"ARG_OF_PERICENTER":89.243,"MEAN_ANOMALY":270.8716,"EPHEMERIS_TYPE":0,"CLASSIFICATION_TYPE":"U","NORAD_CAT_ID":53831,"ELEMENT_SET_NO":999,"REV_AT_EPOCH":16268,"BSTAR":5.0506566e-5,"MEAN_MOTION_DOT":5.16e-6,"MEAN_MOTION_DDOT":0},{"OBJECT_NAME":"STARLINK-4747","OBJECT_ID":"2022-114Q","EPOCH":"2025-08-22T02:23:38.131296","MEAN_MOTION":15.08833588,"ECCENTRICITY":0.00014053,"INCLINATION":53.2171,"RA_OF_ASC_NODE":119.8666,"ARG_OF_PERICENTER":97.3221,"MEAN_ANOMALY":262.7931,"EPHEMERIS_TYPE":0,"CLASSIFICATION_TYPE":"U","NORAD_CAT_ID":53832,"ELEMENT_SET_NO":999,"REV_AT_EPOCH":16270,"BSTAR":-4.6390378e-5,"MEAN_MOTION_DOT":-1.026e-5,"MEAN_MOTION_DDOT":0},{"OBJECT_NAME":"STARLINK-4771","OBJECT_ID":"2022-114R","EPOCH":"2025-08-22T15:24:00.804672","MEAN_MOTION":15.08835019,"ECCENTRICITY":0.00013535,"INCLINATION":53.2173,"RA_OF_ASC_NODE":117.5622,"ARG_OF_PERICENTER":94.1516,"MEAN_ANOMALY":265.9631,"EPHEMERIS_TYPE":0,"CLASSIFICATION_TYPE":"U","NORAD_CAT_ID":53833,"ELEMENT_SET_NO":999,"REV_AT_EPOCH":16278,"BSTAR":2.815429e-6,"MEAN_MOTION_DOT":-2.43e-6,"MEAN_MOTION_DDOT":0},{"OBJECT_NAME":"STARLINK-4737","OBJECT_ID":"2022-114S","EPOCH":"2025-08-21T21:26:51.339264","MEAN_MOTION":15.08840678,"ECCENTRICITY":0.00014137,"INCLINATION":53.2169,"RA_OF_ASC_NODE":120.7115,"ARG_OF_PERICENTER":91.3642,"MEAN_ANOMALY":268.7512,"EPHEMERIS_TYPE":0,"CLASSIFICATION_TYPE":"U","NORAD_CAT_ID":53834,"ELEMENT_SET_NO":999,"REV_AT_EPOCH":16267,"BSTAR":1.2429657e-5,"MEAN_MOTION_DOT":-9.0e-7,"MEAN_MOTION_DDOT":0},{"OBJECT_NAME":"STARLINK-4783","OBJECT_ID":"2022-114T","EPOCH":"2025-08-22T02:28:55.504416","MEAN_MOTION":15.08843903,"ECCENTRICITY":0.00014609,"INCLINATION":53.2169,"RA_OF_ASC_NODE":119.8882,"ARG_OF_PERICENTER":88.7734,"MEAN_ANOMALY":271.3425,"EPHEMERIS_TYPE":0,"CLASSIFICATION_TYPE":"U","NORAD_CAT_ID":53835,"ELEMENT_SET_NO":999,"REV_AT_EPOCH":16270,"BSTAR":2.801688e-5,"MEAN_MOTION_DOT":1.58e-6,"MEAN_MOTION_DDOT":0},{"OBJECT_NAME":"STARLINK-4778","OBJECT_ID":"2022-114U","EPOCH":"2025-08-22T01:47:55.312800","MEAN_MOTION":15.08848358,"ECCENTRICITY":0.000132,"INCLINATION":53.2174,"RA_OF_ASC_NODE":110.4295,"ARG_OF_PERICENTER":90.6809,"MEAN_ANOMALY":269.4334,"EPHEMERIS_TYPE":0,"CLASSIFICATION_TYPE":"U","NORAD_CAT_ID":53836,"ELEMENT_SET_NO":999,"REV_AT_EPOCH":16283,"BSTAR":8.521183e-5,"MEAN_MOTION_DOT":1.069e-5,"MEAN_MOTION_DDOT":0},{"OBJECT_NAME":"STARLINK-4776","OBJECT_ID":"2022-114V","EPOCH":"2025-08-21T21:32:10.082688","MEAN_MOTION":15.08836278,"ECCENTRICITY":0.00014617,"INCLINATION":53.2173,"RA_OF_ASC_NODE":120.7351,"ARG_OF_PERICENTER":88.4079,"MEAN_ANOMALY":271.7081,"EPHEMERIS_TYPE":0,"CLASSIFICATION_TYPE":"U","NORAD_CAT_ID":53837,"ELEMENT_SET_NO":999,"REV_AT_EPOCH":16267,"BSTAR":-3.6198726e-5,"MEAN_MOTION_DOT":-8.64e-6,"MEAN_MOTION_DDOT":0},{"OBJECT_NAME":"STARLINK-4773","OBJECT_ID":"2022-114W","EPOCH":"2025-08-22T01:42:38.307744","MEAN_MOTION":15.08834343,"ECCENTRICITY":0.00015252,"INCLINATION":53.218,"RA_OF_ASC_NODE":110.4127,"ARG_OF_PERICENTER":97.0738,"MEAN_ANOMALY":263.0428,"EPHEMERIS_TYPE":0,"CLASSIFICATION_TYPE":"U","NORAD_CAT_ID":53838,"ELEMENT_SET_NO":999,"REV_AT_EPOCH":16283,"BSTAR":-4.5473789e-5,"MEAN_MOTION_DOT":-1.012e-5,"MEAN_MOTION_DDOT":0},{"OBJECT_NAME":"STARLINK-4784","OBJECT_ID":"2022-114X","EPOCH":"2025-08-22T01:53:14.708544","MEAN_MOTION":15.08837168,"ECCENTRICITY":0.00015174,"INCLINATION":53.218,"RA_OF_ASC_NODE":110.4596,"ARG_OF_PERICENTER":97.3271,"MEAN_ANOMALY":262.7893,"EPHEMERIS_TYPE":0,"CLASSIFICATION_TYPE":"U","NORAD_CAT_ID":53839,"ELEMENT_SET_NO":999,"REV_AT_EPOCH":16283,"BSTAR":-4.344872e-6,"MEAN_MOTION_DOT":-3.57e-6,"MEAN_MOTION_DDOT":0},{"OBJECT_NAME":"STARLINK-4766","OBJECT_ID":"2022-114Y","EPOCH":"2025-08-22T01:28:05.543328","MEAN_MOTION":15.08841802,"ECCENTRICITY":0.00013343,"INCLINATION":53.2162,"RA_OF_ASC_NODE":110.3478,"ARG_OF_PERICENTER":87.2539,"MEAN_ANOMALY":272.8606,"EPHEMERIS_TYPE":0,"CLASSIFICATION_TYPE":"U","NORAD_CAT_ID":53840,"ELEMENT_SET_NO":999,"REV_AT_EPOCH":16283,"BSTAR":1.3018842e-5,"MEAN_MOTION_DOT":-8.1e-7,"MEAN_MOTION_DDOT":0},{"OBJECT_NAME":"STARLINK-4750","OBJECT_ID":"2022-114Z","EPOCH":"2025-08-22T01:37:19.111584","MEAN_MOTION":15.0883782,"ECCENTRICITY":0.00014175,"INCLINATION":53.217,"RA_OF_ASC_NODE":110.3896,"ARG_OF_PERICENTER":86.0723,"MEAN_ANOMALY":274.0431,"EPHEMERIS_TYPE":0,"CLASSIFICATION_TYPE":"U","NORAD_CAT_ID":53841,"ELEMENT_SET_NO":999,"REV_AT_EPOCH":16283,"BSTAR":9.3310191e-5,"MEAN_MOTION_DOT":1.197e-5,"MEAN_MOTION_DDOT":0},{"OBJECT_NAME":"STARLINK-4754","OBJECT_ID":"2022-114AA","EPOCH":"2025-08-22T01:16:06.929472","MEAN_MOTION":15.08832602,"ECCENTRICITY":0.00013939,"INCLINATION":53.2174,"RA_OF_ASC_NODE":110.2966,"ARG_OF_PERICENTER":88.81,"MEAN_ANOMALY":271.3052,"EPHEMERIS_TYPE":0,"CLASSIFICATION_TYPE":"U","NORAD_CAT_ID":53842,"ELEMENT_SET_NO":999,"REV_AT_EPOCH":16283,"BSTAR":-3.3140206e-5,"MEAN_MOTION_DOT":-8.15e-6,"MEAN_MOTION_DDOT":0},{"OBJECT_NAME":"STARLINK-4769","OBJECT_ID":"2022-114AB","EPOCH":"2025-08-22T01:32:01.248576","MEAN_MOTION":15.08846993,"ECCENTRICITY":0.00012504,"INCLINATION":53.2169,"RA_OF_ASC_NODE":110.3648,"ARG_OF_PERICENTER":83.0695,"MEAN_ANOMALY":277.044,"EPHEMERIS_TYPE":0,"CLASSIFICATION_TYPE":"U","NORAD_CAT_ID":53843,"ELEMENT_SET_NO":999,"REV_AT_EPOCH":16283,"BSTAR":-4.603729e-6,"MEAN_MOTION_DOT":-3.61e-6,"MEAN_MOTION_DDOT":0},{"OBJECT_NAME":"STARLINK-4745","OBJECT_ID":"2022-114AC","EPOCH":"2025-08-20T22:03:56.408832","MEAN_MOTION":15.08828411,"ECCENTRICITY":0.0001397,"INCLINATION":53.2176,"RA_OF_ASC_NODE":115.3087,"ARG_OF_PERICENTER":93.6666,"MEAN_ANOMALY":266.4486,"EPHEMERIS_TYPE":0,"CLASSIFICATION_TYPE":"U","NORAD_CAT_ID":53844,"ELEMENT_SET_NO":999,"REV_AT_EPOCH":16266,"BSTAR":4.7757e-5,"MEAN_MOTION_DOT":4.72e-6,"MEAN_MOTION_DDOT":0}]
